HAWK-11B                
1 62379U 24247C   26068.44730104  .00009093  00000+0  32842-3 0  9993
2 62379  45.0161 115.7610 0004690 333.0326  27.0314 15.28847070 67738
STARLINK-35436          
1 65932U 25225Y   26068.52188878  .00032533  00000+0  11062-2 0  9997
2 65932  53.1603 166.3686 0000879 147.9088 212.1967 15.30187412 24389
